     2              NAVIGATION DATA                         RINEX VERSION / TYPE
CCRINEXN V1.6.0 UX  CDDIS               17-NOV-16 17:31     PGM / RUN BY / DATE 
IGS BROADCAST EPHEMERIS FILE                                COMMENT             
    0.1211D-07 -0.7451D-08 -0.1192D-06  0.5960D-07          ION ALPHA           
    0.9830D+05 -0.8192D+05 -0.1966D+06  0.4588D+06          ION BETA            
    0.000000000000D+00-0.444089209850D-14   405504     1923 DELTA-UTC: A0,A1,T,W
    17                                                      LEAP SECONDS        
                                                            END OF HEADER       
11 16 11 16  2  0  0.0-0.671538989991D-03-0.102318153950D-11 0.000000000000D+00
    0.440000000000D+02-0.341562500000D+02 0.552130141294D-08 0.231439351226D+01
   -0.169873237610D-05 0.167639234569D-01 0.114664435387D-04 0.515368783379D+04
    0.266400000000D+06 0.284984707832D-06 0.602080900983D+00-0.614672899246D-07
    0.898705269196D+00 0.120625000000D+03 0.159801392936D+01-0.811855245601D-08
    0.442518432669D-09 0.100000000000D+01 0.192300000000D+04 0.000000000000D+00
    0.280000000000D+01 0.000000000000D+00-0.121071934700D-07 0.440000000000D+02
    0.259200000000D+06 0.400000000000D+01 0.000000000000D+00 0.000000000000D+00
12 16 11 16  2  0  0.0 0.389499589801D-03 0.000000000000D+00 0.000000000000D+00
    0.610000000000D+02-0.642500000000D+02 0.429803617332D-08 0.164545768661D+01
   -0.341795384884D-05 0.608092546463D-02 0.739470124245D-06 0.515362748718D+04
    0.266400000000D+06-0.225380063057D-06-0.105330148959D+01 0.521540641785D-07
    0.989802721371D+00 0.380687500000D+03 0.780886069073D+00-0.838749222986D-08
   -0.270368404786D-09 0.100000000000D+01 0.192300000000D+04 0.000000000000D+00
    0.200000000000D+01 0.000000000000D+00-0.125728547573D-07 0.610000000000D+02
    0.259200000000D+06 0.400000000000D+01 0.000000000000D+00 0.000000000000D+00
13 16 11 16  2  0  0.0-0.550998374820D-04-0.204636307899D-11 0.000000000000D+00
    0.220000000000D+02 0.554375000000D+02 0.406195491101D-08-0.302406505839D+01
    0.272691249847D-05 0.403737626038D-02 0.124927610159D-04 0.515369168663D+04
    0.266400000000D+06 0.763684511185D-07-0.308876163614D+01 0.428408384323D-07
    0.970991022679D+00 0.143000000000D+03 0.190073197897D+01-0.757460122683D-08
   -0.383230248792D-09 0.100000000000D+01 0.192300000000D+04 0.000000000000D+00
    0.200000000000D+01 0.000000000000D+00-0.111758708954D-07 0.220000000000D+02
    0.259200000000D+06 0.400000000000D+01 0.000000000000D+00 0.000000000000D+00
14 16 11 16  2  0  0.0-0.452082604170D-04-0.170530256582D-11 0.000000000000D+00
    0.240000000000D+02 0.411875000000D+02 0.422196157593D-08-0.168503065202D+01
    0.220537185669D-05 0.867428153288D-02 0.130925327539D-04 0.515360831070D+04
    0.266400000000D+06 0.156462192535D-06-0.312690001287D+01 0.484287738800D-07
    0.963483774749D+00 0.125937500000D+03-0.194704070051D+01-0.766674792225D-08
   -0.470733893670D-09 0.100000000000D+01 0.192300000000D+04 0.000000000000D+00
    0.200000000000D+01 0.000000000000D+00-0.931322574616D-08 0.240000000000D+02
    0.259200000000D+06 0.400000000000D+01 0.000000000000D+00 0.000000000000D+00
15 16 11 16  2  0  0.0-0.334450509399D-03-0.125055521494D-11 0.000000000000D+00
    0.740000000000D+02 0.133750000000D+02 0.506199656676D-08-0.203164701693D+01
    0.320374965668D-06 0.878601544537D-02 0.118501484394D-04 0.515370406723D+04
    0.266400000000D+06 0.147148966789D-06 0.301439594523D+01-0.109896063805D-06
    0.930357949303D+00 0.132843750000D+03 0.532546650637D+00-0.808783689087D-08
   -0.442518432669D-09 0.100000000000D+01 0.192300000000D+04 0.000000000000D+00
    0.200000000000D+01 0.000000000000D+00-0.107102096081D-07 0.740000000000D+02
    0.259200000000D+06 0.400000000000D+01 0.000000000000D+00 0.000000000000D+00
16 16 11 16  2  0  0.0 0.156932510436D-04 0.159161572810D-11 0.000000000000D+00
    0.690000000000D+02-0.581562500000D+02 0.430303638159D-08-0.299103272658D+00
   -0.307150185108D-05 0.876730971504D-02 0.759959220886D-06 0.515359554672D+04
    0.266400000000D+06 0.707805156708D-07-0.103447421814D+01 0.156462192535D-06
    0.990308027904D+00 0.378031250000D+03 0.381455981333D+00-0.844785188694D-08
   -0.301083969927D-09 0.100000000000D+01 0.192300000000D+04 0.000000000000D+00
    0.200000000000D+01 0.000000000000D+00-0.102445483208D-07 0.690000000000D+02
    0.259218000000D+06 0.400000000000D+01 0.000000000000D+00 0.000000000000D+00
17 16 11 16  2  0  0.0-0.199079047889D-03 0.682121026330D-12 0.000000000000D+00
    0.840000000000D+02-0.116343750000D+03 0.390337687703D-08-0.131471445100D+01
   -0.605918467045D-05 0.114596312633D-01 0.112149864435D-04 0.515377515221D+04
    0.266400000000D+06 0.124797224999D-06-0.151742977161D-01 0.312924385071D-06
    0.978547625076D+00 0.173187500000D+03-0.191105148648D+01-0.773103631441D-08
   -0.191079387795D-09 0.100000000000D+01 0.192300000000D+04 0.000000000000D+00
    0.200000000000D+01 0.000000000000D+00-0.107102096081D-07 0.840000000000D+02
    0.259530000000D+06 0.400000000000D+01 0.000000000000D+00 0.000000000000D+00
18 16 11 16  2  0  0.0 0.576317310333D-03 0.318323145621D-11 0.000000000000D+00
    0.680000000000D+02-0.118437500000D+02 0.598310636325D-08 0.279135753113D+00
   -0.646337866783D-06 0.172952258727D-01 0.485591590404D-05 0.515371291924D+04
    0.266400000000D+06-0.318512320519D-06 0.199440281815D+01 0.689178705216D-07
    0.924816618964D+00 0.269343750000D+03-0.185086331943D+01-0.903537635969D-08
   -0.195008122871D-09 0.100000000000D+01 0.192300000000D+04 0.000000000000D+00
    0.200000000000D+01 0.000000000000D+00-0.111758708954D-07 0.680000000000D+02
    0.259218000000D+06 0.400000000000D+01 0.000000000000D+00 0.000000000000D+00
19 16 11 16  2  0  0.0-0.519952271134D-03 0.682121026330D-12 0.000000000000D+00
    0.530000000000D+02-0.122031250000D+03 0.384230290448D-08 0.185289321921D+01
   -0.655464828014D-05 0.103222825564D-01 0.120606273413D-04 0.515364219665D+04
    0.266400000000D+06-0.154599547386D-06 0.331035729996D-01-0.132247805595D-06
    0.975716270019D+00 0.161875000000D+03 0.886620916326D+00-0.766603360679D-08
   -0.155720772110D-09 0.100000000000D+01 0.192300000000D+04 0.000000000000D+00
    0.200000000000D+01 0.000000000000D+00-0.149011611938D-07 0.530000000000D+02
    0.259200000000D+06 0.400000000000D+01 0.000000000000D+00 0.000000000000D+00
20 16 11 16  2  0  0.0 0.446170568466D-03 0.193267624127D-11 0.000000000000D+00
    0.190000000000D+02-0.965625000000D+01 0.581131349310D-08-0.214627889452D+01
   -0.387430191040D-06 0.475945253856D-02 0.405311584473D-05 0.515359057808D+04
    0.266400000000D+06 0.409781932831D-07 0.194280183539D+01 0.316649675369D-07
    0.926099002712D+00 0.276093750000D+03 0.148920759344D+01-0.865286042637D-08
   -0.364300888880D-10 0.100000000000D+01 0.192300000000D+04 0.000000000000D+00
    0.200000000000D+01 0.000000000000D+00-0.838190317154D-08 0.190000000000D+02
    0.259200000000D+06 0.400000000000D+01 0.000000000000D+00 0.000000000000D+00
21 16 11 16  2  0  0.0-0.531425233930D-03 0.102318153950D-11 0.000000000000D+00
    0.310000000000D+02 0.884375000000D+01 0.510306970619D-08 0.122104279843D+01
    0.262632966042D-06 0.234003685182D-01 0.108201056719D-04 0.515379147148D+04
    0.266400000000D+06-0.420957803726D-06 0.952641892833D+00-0.268220901489D-06
    0.937689882593D+00 0.166312500000D+03-0.174179496317D+01-0.849071081504D-08
    0.685385691922D-09 0.100000000000D+01 0.192300000000D+04 0.000000000000D+00
    0.200000000000D+01 0.000000000000D+00-0.977888703346D-08 0.310000000000D+02
    0.262770000000D+06 0.400000000000D+01 0.000000000000D+00 0.000000000000D+00
22 16 11 16  2  0  0.0 0.189079903066D-03-0.108002495835D-10 0.000000000000D+00
    0.930000000000D+02-0.740625000000D+01 0.586060126042D-08-0.178739905852D+01
   -0.279396772385D-06 0.732215249445D-02 0.400468707085D-05 0.515366087151D+04
    0.266400000000D+06 0.135973095894D-06 0.199468392810D+01 0.838190317154D-07
    0.922784106416D+00 0.276718750000D+03-0.184693337141D+01-0.868571893792D-08
   -0.507163982558D-10 0.100000000000D+01 0.192300000000D+04 0.000000000000D+00
    0.200000000000D+01 0.000000000000D+00-0.176951289177D-07 0.930000000000D+02
    0.259200000000D+06 0.400000000000D+01 0.000000000000D+00 0.000000000000D+00
23 16 11 16  2  0  0.0-0.196839682758D-03-0.125055521494D-11 0.000000000000D+00
    0.250000000000D+02 0.145625000000D+02 0.464876506830D-08-0.250928756812D+01
    0.493600964546D-06 0.111400936730D-01 0.124480575323D-04 0.515359041786D+04
    0.266400000000D+06 0.223517417908D-07 0.307479994098D+01-0.152736902237D-06
    0.945615365636D+00 0.132656250000D+03-0.252400582014D+01-0.784568394708D-08
   -0.396802242692D-09 0.100000000000D+01 0.192300000000D+04 0.000000000000D+00
    0.200000000000D+01 0.000000000000D+00-0.200234353542D-07 0.250000000000D+02
    0.259200000000D+06 0.400000000000D+01 0.000000000000D+00 0.000000000000D+00
24 16 11 16  2  0  0.0-0.261538662016D-04-0.568434188608D-12 0.000000000000D+00
    0.910000000000D+02 0.175468750000D+03 0.472912555849D-08-0.309540772711D+01
    0.901892781258D-05 0.497152935714D-02 0.694021582603D-05 0.515372618484D+04
    0.266400000000D+06-0.111758708954D-07-0.218397732790D+01-0.484287738800D-07
    0.947587115881D+00 0.240843750000D+03 0.398697711451D+00-0.824462913618D-08
    0.386444668400D-09 0.100000000000D+01 0.192300000000D+04 0.000000000000D+00
    0.200000000000D+01 0.000000000000D+00 0.232830643654D-08 0.910000000000D+02
    0.259200000000D+06 0.400000000000D+01 0.000000000000D+00 0.000000000000D+00
